IRIDIUM 39              
1 25042U 97069D   26006.31412140  .00000984  00000+0  25083-3 0  9995
2 25042  86.3935 124.0940 0017226 354.3983   5.7026 14.49551994478383
IRIDIUM 38              
1 25043U 97069E   26006.32705787  .00000674  00000+0  21497-3 0  9990
2 25043  86.3990 147.7702 0003399 122.7765 237.3762 14.38344879475156
IRIDIUM 42              
1 25077U 97077A   26006.16576306  .00000599  00000+0  19721-3 0  9994
2 25077  86.3995 154.2566 0002252 112.8785 247.2650 14.36559727470337
IRIDIUM 44              
1 25078U 97077B   26006.33602769  .00000550  00000+0  16691-3 0  9997
2 25078  86.3988 135.5774 0003856  87.2997 272.8643 14.40458088472942
IRIDIUM 45              
1 25104U 97082A   26006.29851168  .00031694  00000+0  86299-3 0  9991
2 25104  86.3562 308.5606 0091304 286.2186  72.9032 15.33147337483030
IRIDIUM 24              
1 25105U 97082B   26006.32255277  .00000687  00000+0  20177-3 0  9996
2 25105  86.3915 354.1194 0013116 120.8893 239.3599 14.42358648472498
IRIDIUM 51              
1 25262U 98018A   26006.26744763  .00134184  00000+0  11218-2 0  9991
2 25262  86.3730 313.5981 0047059 169.0035 191.2276 15.68117203478488
IRIDIUM 57              
1 25273U 98019B   26006.15978543  .00000441  00000+0  14473-3 0  9992
2 25273  86.3933  60.1446 0002292  95.2657 264.8802 14.36072903453910
